{"type":"FeatureCollection","name":"Arad whole-city boundary (simplified)","crs":{"type":"name","properties":{"name":"urn:ogc:def:crs:EPSG::4326"}},"features":[{"type":"Feature","properties":{"name":"Arad whole-city boundary (simplified)","city":"arad","authority":"ANCPI (Agenția Națională de Cadastru și Publicitate Imobiliară); republished by geo-spatial.org","dataset":"Romanian LAU administrative units (UAT) polygon","internal_boundary_version":"arad-admin-2025-03-26-v1","intended_use":"city_access","bundled_status":"NOT YET BUNDLED","derivative_kind":"simplified","licence":"CC BY 4.0","source_file":"ro_admin_lau_polygon.geojson","transformation_notes":"Filtered Arad Municipiu resedinta de judet (natCode 9262) from national LAU FeatureCollection; source already EPSG:4326 / CRS84. No CRS transform of stored coordinates.","simplification_notes":"shapely.simplify (Douglas-Peucker with preserve_topology=True); tolerance=10.0 m; units=metres in EPSG:32634; topology_preservation=True; vertices 926 -> 307; area_diff_m2=-1558.041 (-0.000651%)","simplification_tolerance_m":10.0,"simplification_algorithm":"shapely.simplify (Douglas-Peucker with preserve_topology=True)","crs_epsg":4326},"geometry":{"type":"MultiPolygon","coordinates":[[[[21.166245898584542,46.051804972613326],[21.171643313500088,46.04836843528947],[21.17594152605467,46.052016897812884],[21.178688854657985,46.05054162127969],[21.176758340663394,46.04810095705193],[21.174573325052165,46.04767400246971],[21.171721864221013,46.04748893549324],[21.169350620779362,46.04475073608374],[21.16739021466854,46.04564112651082],[21.16202458903172,46.04766435415877],[21.15198673876046,46.051040776997],[21.156096327805336,46.05583689506057],[21.164030577555177,46.06242659140296],[21.17146038975694,46.056373910835184],[21.166245898584542,46.051804972613326]]],[[[21.249822456606204,46.25456703593905],[21.258242994989754,46.25306959888481],[21.25831615711901,46.253231091141984],[21.259050997462626,46.25308779586002],[21.25946220409854,46.252818674463875],[21.26032766268068,46.2528882839391],[21.261679403926152,46.25264313713536],[21.26187681931297,46.2524944408882],[21.294049448327797,46.24723578710733],[21.293998508050905,46.24712244645694],[21.298818770164843,46.24620213702103],[21.315453413076565,46.24338067831317],[21.315875060244693,46.24264696251417],[21.31703737581462,46.241959287297796],[21.319880996497226,46.2411570674385],[21.320599713469853,46.24105671637483],[21.320576622763838,46.24130730189353],[21.321424949145637,46.24130567296425],[21.32405879816842,46.24099529406102],[21.324063928357347,46.24116973150225],[21.32543979131477,46.241524624845816],[21.328093692590667,46.241027986876205],[21.32856304002761,46.24077286562737],[21.329835889398574,46.241468546002736],[21.3316825957786,46.24195059341228],[21.33447024873323,46.241984940170646],[21.33464351173624,46.23969467725388],[21.35353054373488,46.23595282640693],[21.368017067005642,46.23324718412379],[21.371857959158312,46.2318332182897],[21.369193446354323,46.22798127843901],[21.36798359021818,46.225842827984984],[21.357410969922388,46.21624295740626],[21.360975318850517,46.214695263311064],[21.354631505926974,46.205647596626214],[21.35753380605706,46.2047415063403],[21.357929087207676,46.20532628698107],[21.362281989679442,46.20374106766719],[21.362356370549346,46.20347430050569],[21.36155367664846,46.20147796388865],[21.360857322089306,46.20078162227644],[21.360933284664032,46.19959044151043],[21.362284127296316,46.19851206714402],[21.362911945905037,46.19734316178144],[21.36274772149454,46.19524504272482],[21.36239236934623,46.19509614571544],[21.36182016918713,46.19523002721559],[21.359665583767903,46.19610292929857],[21.354995616204175,46.194478130252406],[21.35374410317516,46.19483895364753],[21.353238849187697,46.19578180688453],[21.349225221900582,46.196368331661176],[21.347414339640114,46.19473712588644],[21.347555541722162,46.192826619068974],[21.348193552513546,46.19156407126631],[21.35480590127459,46.18926460185426],[21.359153890012433,46.193240749748],[21.359449715488118,46.193889265321296],[21.364298607660228,46.195389454894666],[21.36824602378572,46.19682450343399],[21.368850824906612,46.19729038012021],[21.370271196737143,46.19895789805368],[21.37152093603233,46.19977129661964],[21.368105052134812,46.20157679049468],[21.37008329956767,46.20370299938514],[21.371458565006066,46.204342065366916],[21.37282769821194,46.20406274653952],[21.374684886408023,46.20410623877755],[21.375213874076078,46.20346984371445],[21.375560401803813,46.20341935336655],[21.37671742396814,46.20384020886122],[21.382052994171893,46.202589993832405],[21.382532035744596,46.20147258758215],[21.38371038052933,46.20085478133773],[21.384892680749967,46.200631512192146],[21.385750099930387,46.20019944773107],[21.385764549494656,46.199306105709084],[21.386138216742687,46.19898732448542],[21.388023822155176,46.199420303956224],[21.388730577924022,46.19984685828639],[21.39065344054328,46.19983606113845],[21.391950376084594,46.199686376102164],[21.392930445258887,46.19939566218875],[21.395128865635844,46.19936965986182],[21.39842227259541,46.19781763057678],[21.400097261883417,46.195827817392754],[21.403570395028417,46.19910339987672],[21.41373480474516,46.20099011207733],[21.414100552430803,46.19944999251935],[21.414672878789947,46.19428771489651],[21.393617243480293,46.189938071604],[21.392882721158525,46.189408191354325],[21.385807305088314,46.17883716999278],[21.390883759948405,46.17830236728841],[21.389054998636812,46.17785484460436],[21.387540606352932,46.17689149761355],[21.376010607320296,46.16143306610443],[21.374962128296033,46.160930113591114],[21.374079056028677,46.16076051886972],[21.37392641997147,46.160001160241706],[21.37979362113202,46.158364975284044],[21.37857966728686,46.155882210797266],[21.377389734929157,46.15426800297795],[21.374738018423773,46.15392030837244],[21.37390575126189,46.153579494892846],[21.373254389801712,46.152781332102144],[21.37315707340562,46.15157417471272],[21.372699217924524,46.151649081869785],[21.371766301997354,46.150328667015096],[21.369799440555497,46.14841718394606],[21.36700913410754,46.14858381295544],[21.365362267237522,46.148163177501154],[21.363978468630062,46.147256410813576],[21.36622348943468,46.14518302938841],[21.36605535448105,46.14352360338177],[21.365333114892795,46.1409862178912],[21.365444997523728,46.14009269158685],[21.363750677935954,46.13092212397594],[21.363955970046675,46.13027898366004],[21.36386435522371,46.129652520910625],[21.36099296868212,46.11504417252358],[21.360894878556348,46.11296174090488],[21.360618998023142,46.11211416083198],[21.359840455529405,46.10607341817017],[21.35799303272989,46.09519636943019],[21.357229820465456,46.09185666783407],[21.35664966498256,46.085209155101694],[21.33514617180685,46.0883172282689],[21.33643605505272,46.09572334426827],[21.328561011576113,46.093919448733594],[21.326181892107083,46.09318408233971],[21.324063872964093,46.09406556696693],[21.32086666198527,46.093081245860446],[21.320617470901112,46.09319077434939],[21.32193554846173,46.09595109063293],[21.3133165865332,46.09241341268161],[21.308591419119008,46.0902296593795],[21.308189669122648,46.09012019707037],[21.307520337835108,46.090254288136755],[21.310703661136134,46.096123589748785],[21.30311353209055,46.09866051389971],[21.274550257125984,46.10473512455372],[21.261157318742164,46.0735684457743],[21.258781633472456,46.07281327536032],[21.25299543881843,46.071336119905915],[21.25287625298341,46.07097166885097],[21.24143308532939,46.06786689693355],[21.243277152336805,46.06520821757308],[21.242417195075973,46.065078814858396],[21.239374309045886,46.06525365764438],[21.235658245449113,46.06496538421047],[21.23407943310228,46.06422206278394],[21.233038655158545,46.06316464482715],[21.231858535762814,46.06298747063904],[21.228397349392136,46.06156215645788],[21.222311543401442,46.060366529924515],[21.22072227285618,46.06018538172814],[21.218392916467653,46.06272309174847],[21.21600465611949,46.06341558798021],[21.21565861210769,46.06985514226584],[21.216177673942223,46.07263514226787],[21.21489068166746,46.07382591633681],[21.21424724876808,46.07597538007938],[21.21456407039887,46.07756462554627],[21.214237282115235,46.079231218218155],[21.213462325124482,46.0812283089999],[21.214631782298827,46.08383252149259],[21.214095990456535,46.084406800491834],[21.212390050205876,46.09262680178852],[21.251575663222564,46.099480737676245],[21.246697401309913,46.121744810538885],[21.2442214559252,46.13403192104043],[21.248173661379468,46.13511750193902],[21.247549756175072,46.13867986694434],[21.243195552527933,46.13759462521958],[21.243098049583157,46.13771837068095],[21.245484997214366,46.14164307628567],[21.241703877883467,46.143957838482855],[21.241388106895275,46.144015936367055],[21.240690812227644,46.14380324497217],[21.240249010334093,46.14427887284967],[21.239195636009093,46.14483789832335],[21.237286005405956,46.14515422826301],[21.233335322052486,46.14498075600099],[21.233463639403528,46.143360416063516],[21.23246078432084,46.142941562271425],[21.229701144582627,46.14252287914829],[21.22757258884774,46.14261383651025],[21.22631659915929,46.14292991048836],[21.223192399114552,46.14419129545139],[21.22441290451073,46.145090673078776],[21.225170895316683,46.14652856028071],[21.222933460387807,46.146900838768076],[21.221594352599187,46.14812136081949],[21.219906361679048,46.15141183148372],[21.219091055932047,46.15237635734989],[21.217999331964904,46.15268726653559],[21.216193872822547,46.152478821933435],[21.214719013015884,46.1521325632534],[21.213710347792507,46.15175215797215],[21.21283223057254,46.151029031135565],[21.21205924247848,46.14981365074694],[21.211981332212368,46.14834862642539],[21.212436716159075,46.14635864291198],[21.21087892519991,46.14539973963978],[21.208880169900088,46.14469593267274],[21.205568371544878,46.145125542711206],[21.203019638564466,46.144722163551435],[21.199344012539697,46.144796216867995],[21.19682920242759,46.14338843916768],[21.195007095599248,46.14166036118305],[21.193545273219605,46.14085153201796],[21.19041198848547,46.13971727596819],[21.18828421644189,46.139867054167524],[21.181636812926918,46.14138663906177],[21.185275847103053,46.14176276755294],[21.195275142020712,46.147567695487055],[21.194587105425356,46.14824751757621],[21.195946139900826,46.14864955488428],[21.194867194057462,46.14977330745254],[21.19555396655115,46.150242183617564],[21.195060892056954,46.15068964126585],[21.194932337872412,46.15136854910828],[21.19435566109424,46.152017412157214],[21.193758755035915,46.15474081054536],[21.192063733835827,46.15617683411552],[21.18899852349608,46.15445739610511],[21.1888735511962,46.160637177807054],[21.188632516857055,46.16152894767288],[21.188014331485665,46.161841132253144],[21.18649678761566,46.16208564404449],[21.18486988037613,46.16191215924837],[21.18312026171553,46.16085222483283],[21.1823816612738,46.16059746028169],[21.181627806293946,46.16066733923274],[21.180407082383432,46.161097474439494],[21.179945876777794,46.16142992239768],[21.17806950303328,46.16153494241411],[21.176310429886662,46.16097921239176],[21.175761176873205,46.161420503454245],[21.175590908437755,46.16245835407346],[21.176142034093832,46.16302340821851],[21.178244875088527,46.16300673404875],[21.179351026091574,46.162789021093246],[21.180364775200765,46.16287258100092],[21.180819683392176,46.163148660048144],[21.181038545005546,46.163513663457735],[21.180535016689948,46.16494903096592],[21.180263976931418,46.16524009442921],[21.178728304709985,46.1660794647713],[21.177516596893255,46.16637393317271],[21.17722848501337,46.166785051233774],[21.174204413254113,46.172924852717166],[21.173309666298245,46.17430366723949],[21.17242118534753,46.17653980628336],[21.171803336935344,46.17711057779117],[21.171249978825625,46.17812030681948],[21.152823083667762,46.17508899234518],[21.15135272380158,46.17885976457115],[21.178929339017696,46.18402700945379],[21.178615571214813,46.184955192803],[21.177899597525514,46.18582053863447],[21.175801087411983,46.19034112916272],[21.169970112096763,46.20156116316704],[21.171963608951113,46.20211438115954],[21.175096599841616,46.20331072621089],[21.17994622284434,46.204835831739736],[21.17896081908356,46.205070768951174],[21.16328630569208,46.20655293221933],[21.16807150804594,46.21234894441907],[21.167411926258875,46.21347496741715],[21.167310111848355,46.2155492105826],[21.168068297147233,46.216687080187256],[21.16980596735908,46.2175734391417],[21.16676493705353,46.218885914937026],[21.175857649356345,46.228913620378016],[21.175872271407815,46.22919454508275],[21.183945902900046,46.23796910617748],[21.18385404180861,46.238425716274264],[21.18598058067878,46.24122287287965],[21.188405149534148,46.24372934013394],[21.198499644140668,46.25313540451918],[21.20615731210791,46.26151140881201],[21.206898217210348,46.261813915646584],[21.207884012526726,46.261471334354994],[21.211175578330753,46.260829842741664],[21.21224297492961,46.26038618287607],[21.232818085591518,46.257352828994215],[21.245974845936622,46.255204116759955],[21.247503941597266,46.255156377887026],[21.2497679408414,46.25469883210358],[21.249822456606204,46.25456703593905]]]]}}]}